INTELSAT 33E            
1 41748C 16053B   23303.00000000  .00000139  00000-0  00000-0 0  3032
2 41748   0.0173 285.2694 0002181 302.7893 230.0220  1.00266397    11
INTELSAT 33E            
1 41748C 16053B   23306.00000000  .00000248  00000-0  00000-0 0  3069
2 41748   0.0077 290.6311 0001972 302.7672 227.6278  1.00271844    10
INTELSAT 33E        [PM]
1 41748C 16053B   23310.82847222  .00000143  00000-0  00000-0 0  3108
2 41748   0.0311  73.5789 0001765 168.8470 161.6269  1.00270376    11
INTELSAT 32E            
1 41945C 17007B   23303.00000000 -.00000233  00000-0  00000-0 0  3037
2 41945   0.0000 281.3514 0000207 242.6303 190.9280  1.00271288    17
INTELSAT 32E        [PM]
1 41945C 17007B   23305.65690972 -.00000181  00000-0  00000-0 0  3057
2 41945   0.0407  96.9964 0000465 329.1236 167.8794  1.00274225    16
INTELSAT 32E            
1 41945C 17007B   23306.00000000 -.00000250  00000-0  00000-0 0  3062
2 41945   0.0001 334.9943 0000242 253.3093 129.5498  1.00269917    18
INTELSAT 35E            
1 42818C 17041A   23303.00000000 -.00000148  00000-0  00000-0 0  3030
2 42818   0.0022 279.6711 0002123 300.9388 142.9653  1.00271971    10
INTELSAT 35E        [PM]
1 42818C 17041A   23304.34420139 -.00000148  00000-0  00000-0 0  3048
2 42818   0.0137 280.4694 0002172 303.4983 264.8486  1.00272935    19
INTELSAT 35E            
1 42818C 17041A   23306.00000000 -.00000148  00000-0  00000-0 0  3066
2 42818   0.0084 280.7839 0002226 305.6012 140.1558  1.00272349    16
INTELSAT 37E            
1 42950C 17059A   23303.00000000 -.00000049  00000-0  00000-0 0  3036
2 42950   0.0154 277.3889 0003328 309.7520 152.9420  1.00271476    10
INTELSAT 37E            
1 42950C 17059A   23306.00000000 -.00000051  00000-0  00000-0 0  3065
2 42950   0.0053 279.7514 0003417 310.2645 153.0180  1.00271284    15
INTELSAT 37E        [PM]
1 42950C 17059A   23307.68680556 -.00000129  00000-0  00000-0 0  3077
2 42950   0.0014 270.4128 0003279 320.0535  41.4781  1.00272980    15
AZERSPACE 2 (IS-38)     
1 43632C 18074A   23303.00000000  .00000195  00000-0  00000-0 0  3033
2 43632   0.0000 269.9088 0001628 319.9198 213.3557  1.00270717    11
AZERSPACE 2 (IS-38)     
1 43632C 18074A   23306.00000000  .00000225  00000-0  00000-0 0  3063
2 43632   0.0231 118.2627 0001741 119.1721 208.7060  1.00272314    12
HORIZONS-3E             
1 43633C 18074B   23303.00000000  .00000029  00000-0  00000-0 0  3030
2 43633   0.0107 355.5867 0002341 291.3695 280.1182  1.00270029    17
HORIZONS-3E             
1 43633C 18074B   23306.00000000 -.00000012  00000-0  00000-0 0  3069
2 43633   0.0038   5.1850 0002319 280.3228 284.5262  1.00270789    15
INTELSAT 39 (IS-39)     
1 44476C 19049B   23303.00000000  .00000123  00000-0  00000-0 0  3034
2 44476   0.0085 276.5557 0000130 277.9148 265.5554  1.00271213    19
INTELSAT 39 (IS-39)     
1 44476C 19049B   23306.00000000  .00000124  00000-0  00000-0 0  3061
2 44476   0.0045 279.8131 0000204 305.9609 237.2045  1.00270321    15
INTELSAT 39 (IS-39) [PM]
1 44476C 19049B   23306.53224537  .00000123  00000-0  00000-0 0  3061
2 44476   0.0457  90.6230 0000201 305.4947 259.0014  1.00271593    18
GALAXY 30 (G-30)        
1 46114C 20056C   23303.00000000  .00000145  00000-0  00000-0 0  3039
2 46114   0.0023 291.5530 0002261 288.5120  53.0143  1.00271779    16
GALAXY 30 (G-30)    [PM]
1 46114C 20056C   23305.50694444  .00000128  00000-0  00000-0 0  3050
2 46114   0.0102 289.0487 0002350 291.8158 237.1908  1.00271458    12
GALAXY 30 (G-30)        
1 46114C 20056C   23306.00000000  .00000129  00000-0  00000-0 0  3067
2 46114   0.0087 289.3215 0002339 291.5189  55.2009  1.00271376    14
GALAXY 30 (G-30)    [PM]
1 46114C 20056C   23307.05208333  .00000120  00000-0  00000-0 0  3074
2 46114   0.0059 288.6077 0002332 294.6438  72.5775  1.00271750    13
GALAXY 33 (G-33)        
1 54026C 22128A   23303.00000000  .00000160  00000-0  00000-0 0  3039
2 54026   0.0139 295.9683 0002001 283.9261  45.1845  1.00272330    14
GALAXY 33 (G-33)        
1 54026C 22128A   23306.00000000  .00000100  00000-0  00000-0 0  3069
2 54026   0.0077 322.8939 0002093 261.4425  43.6935  1.00271351    18
GALAXY 33 (G-33)    [PM]
1 54026C 22128A   23309.51756944  .00000169  00000-0  00000-0 0  3091
2 54026   0.0122 288.6722 0002070 301.9994 227.1582  1.00272290    14
GALAXY 34 (G-34)        
1 54027C 22128B   23303.00000000  .00000263  00000-0  00000-0 0  3034
2 54027   0.0113 285.0478 0001777 302.2648  41.7610  1.00273054    18
GALAXY 34 (G-34)    [PM]
1 54027C 22128B   23305.55000000  .00000040  00000-0  00000-0 0  3051
2 54027   0.0036 298.4854 0001729 287.2349 243.8848  1.00270650    12
GALAXY 34 (G-34)        
1 54027C 22128B   23306.00000000  .00000078  00000-0  00000-0 0  3064
2 54027   0.0025 300.6589 0001725 285.1348  46.2537  1.00270631    12
GALAXY 34 (G-34)    [PM]
1 54027C 22128B   23307.11458333  .00000096  00000-0  00000-0 0  3074
2 54027   0.0001 302.8440 0001740 284.5367  87.0129  1.00270809    14
GALAXY 31 (G-31)        
1 54243C 22153A   23303.00000000  .00000103  00000-0  00000-0 0  3035
2 54243   0.0186 271.9964 0002959 339.3954  25.6917  1.00272008    15
GALAXY 31 (G-31)        
1 54243C 22153A   23306.00000000  .00000057  00000-0  00000-0 0  3069
2 54243   0.0084 270.2906 0002832 340.9962  28.7657  1.00270635    16
GALAXY 31 (G-31)    [PM]
1 54243C 22153A   23309.47278935  .00000103  00000-0  00000-0 0  3092
2 54243   0.0198 264.5472 0002890 351.5453 197.5830  1.00271135    17
GALAXY 32 (G-32)        
1 54244C 22153B   23303.00000000 -.00000091  00000-0  00000-0 0  3033
2 54244   0.0209 352.4726 0001319 294.8307  19.7754  1.00271958    15
GALAXY 32 (G-32)        
1 54244C 22153B   23306.00000000 -.00000084  00000-0  00000-0 0  3061
2 54244   0.0132 325.0013 0001407 323.1393  21.9012  1.00272251    13
GALAXY 32 (G-32)    [PM]
1 54244C 22153B   23310.38692130 -.00000087  00000-0  00000-0 0  3106
2 54244   0.0155 296.4020 0001585 359.9795 157.2836  1.00271229    18
GALAXY 35 (G-35)        
1 54741C 22170A   23303.00000000 -.00000133  00000-0  00000-0 0  3031
2 54741   0.0100 276.6835 0001868 327.1852  61.1127  1.00272072    12
GALAXY 35 (G-35)        
1 54741C 22170A   23306.00000000 -.00000136  00000-0  00000-0 0  3060
2 54741   0.0000 278.4696 0002021 326.3883  63.0880  1.00271699    14
GALAXY 35 (G-35)    [PM]
1 54741C 22170A   23309.89406250 -.00000072  00000-0  00000-0 0  3099
2 54741   0.0100 264.6691 0001992 344.4688  24.5071  1.00270977    19
GALAXY 36 (G-36)        
1 54742C 22170B   23303.00000000 -.00000103  00000-0  00000-0 0  3039
2 54742   0.0095 269.3421 0001462 238.6452 161.0975  1.00272486    18
GALAXY 36 (G-36)        
1 54742C 22170B   23306.00000000 -.00000117  00000-0  00000-0 0  3060
2 54742   0.0000 264.7548 0001384 243.7869 163.5100  1.00271812    14
GALAXY 36 (G-36)    [PM]
1 54742C 22170B   23309.38416667 -.00000096  00000-0  00000-0 0  3093
2 54742   0.0112 258.4116 0001152 249.4478 305.8289  1.00270848    18
INTELSAT 40E            
1 56174C 23052A   23303.00000000 -.00000085  00000-0  00000-0 0  3039
2 56174   0.0066 259.1233 0003047 310.7516  97.2076  1.00272835    19
INTELSAT 40E            
1 56174C 23052A   23306.00000000 -.00000082  00000-0  00000-0 0  3062
2 56174   0.0000 232.6203 0003068 338.9758  98.4515  1.00271776    17
INTELSAT 40E        [PM]
1 56174C 23052A   23308.39166667 -.00000085  00000-0  00000-0 0  3083
2 56174   0.0110 252.8074 0003066 321.2470 239.3514  1.00270820    17
GALAXY 37 (G-37)        
1 57493C 23112A   23303.00000000  .00000139  00000-0  00000-0 0  3030
2 57493   0.0234 347.6951 0002433 235.4748  47.9100  1.00271226    12
GALAXY 37 (G-37)    [PM]
1 57493C 23112A   23305.59090278  .00000134  00000-0  00000-0 0  3059
2 57493   0.0312  42.5423 0002128 180.2591 263.5689  1.00270512    13
GALAXY 37 (G-37)        
1 57493C 23112A   23306.00000000  .00000134  00000-0  00000-0 0  3061
2 57493   0.0333  51.9011 0002111 170.6972  51.4490  1.00270386    14
